[
    {
        "Altitude(m)": 715046.2582790441,
        "Argument of Periapsis(deg)": 0.004556048474650827,
        "Eccentricity": 0.0,
        "Inclination(deg)": 45.0,
        "Latitude(deg)": -38.30448953650294,
        "Longitude(deg)": -112.07095183135952,
        "Mean Anomaly(deg)": 299.15878665899237,
        "RAAN(deg)": 39.995699223416715,
        "Satellite Name": "Constellation 1 194",
        "Satellite Number": 194,
        "Semi-Major Axis(m)": 7083131.272910544,
        "Time(s)": 76
    },
    {
        "Altitude(m)": 715035.2840438217,
        "Argument of Periapsis(deg)": 0.004615996480896233,
        "Eccentricity": 0.0,
        "Inclination(deg)": 45.0,
        "Latitude(deg)": -38.27789505799996,
        "Longitude(deg)": -112.00583452253403,
        "Mean Anomaly(deg)": 299.21948779924224,
        "RAAN(deg)": 39.99564263425114,
        "Satellite Name": "Constellation 1 194",
        "Satellite Number": 194,
        "Semi-Major Axis(m)": 7083131.272910544,
        "Time(s)": 77
    },
    {
        "Altitude(m)": 715024.293824844,
        "Argument of Periapsis(deg)": 0.004675944487141638,
        "Eccentricity": 0.0,
        "Inclination(deg)": 45.0,
        "Latitude(deg)": -38.25125961619242,
        "Longitude(deg)": -111.94076759440769,
        "Mean Anomaly(deg)": 299.2801889394921,
        "RAAN(deg)": 39.99558604508558,
        "Satellite Name": "Constellation 1 194",
        "Satellite Number": 194,
        "Semi-Major Axis(m)": 7083131.272910544,
        "Time(s)": 78
    },
    {
        "Altitude(m)": 715013.2876619846,
        "Argument of Periapsis(deg)": 0.004735892493387044,
        "Eccentricity": 0.0,
        "Inclination(deg)": 45.0,
        "Latitude(deg)": -38.22458327891354,
        "Longitude(deg)": -111.8757510392532,
        "Mean Anomaly(deg)": 299.34089007974205,
        "RAAN(deg)": 39.99552945592001,
        "Satellite Name": "Constellation 1 194",
        "Satellite Number": 194,
        "Semi-Major Axis(m)": 7083131.272910544,
        "Time(s)": 79
    },
    {
        "Altitude(m)": 715002.2655951711,
        "Argument of Periapsis(deg)": 0.004795840499632449,
        "Eccentricity": 0.0,
        "Inclination(deg)": 45.0,
        "Latitude(deg)": -38.19786611396757,
        "Longitude(deg)": -111.81078484899224,
        "Mean Anomaly(deg)": 299.401591219992,
        "RAAN(deg)": 39.99547286675444,
        "Satellite Name": "Constellation 1 194",
        "Satellite Number": 194,
        "Semi-Major Axis(m)": 7083131.272910544,
        "Time(s)": 80
    },
    {
        "Altitude(m)": 714991.2276643936,
        "Argument of Periapsis(deg)": 0.004855788505877855,
        "Eccentricity": 0.0,
        "Inclination(deg)": 45.0,
        "Latitude(deg)": -38.171108189129036,
        "Longitude(deg)": -111.7458690151959,
        "Mean Anomaly(deg)": 299.4622923602418,
        "RAAN(deg)": 39.995416277588866,
        "Satellite Name": "Constellation 1 194",
        "Satellite Number": 194,
        "Semi-Major Axis(m)": 7083131.272910544,
        "Time(s)": 81
    },
    {
        "Altitude(m)": 714980.1739096898,
        "Argument of Periapsis(deg)": 0.00491573651212326,
        "Eccentricity": 0.0,
        "Inclination(deg)": 45.0,
        "Latitude(deg)": -38.144309572142184,
        "Longitude(deg)": -111.6810036971835,
        "Mean Anomaly(deg)": 299.5229935004918,
        "RAAN(deg)": 39.9953596884233,
        "Satellite Name": "Constellation 1 194",
        "Satellite Number": 194,
        "Semi-Major Axis(m)": 7083131.272910544,
        "Time(s)": 82
    },
    {
        "Altitude(m)": 714969.1043711541,
        "Argument of Periapsis(deg)": 0.004975684518368666,
        "Eccentricity": 0.0,
        "Inclination(deg)": 45.0,
        "Latitude(deg)": -38.11747033072133,
        "Longitude(deg)": -111.6161885496357,
        "Mean Anomaly(deg)": 299.58369464074167,
        "RAAN(deg)": 39.995303099257725,
        "Satellite Name": "Constellation 1 194",
        "Satellite Number": 194,
        "Semi-Major Axis(m)": 7083131.272910544,
        "Time(s)": 83
    },
    {
        "Altitude(m)": 714958.0190889313,
        "Argument of Periapsis(deg)": 0.005035632524614072,
        "Eccentricity": 0.0,
        "Inclination(deg)": 45.0,
        "Latitude(deg)": -38.090590532549356,
        "Longitude(deg)": -111.5514237311787,
        "Mean Anomaly(deg)": 299.64439578099154,
        "RAAN(deg)": 39.995246510092166,
        "Satellite Name": "Constellation 1 194",
        "Satellite Number": 194,
        "Semi-Major Axis(m)": 7083131.272910544,
        "Time(s)": 84
    },
    {
        "Altitude(m)": 714946.9181032284,
        "Argument of Periapsis(deg)": 0.0050955805308594785,
        "Eccentricity": 0.0,
        "Inclination(deg)": 45.0,
        "Latitude(deg)": -38.063670245278054,
        "Longitude(deg)": -111.4867092319972,
        "Mean Anomaly(deg)": 299.7050969212414,
        "RAAN(deg)": 39.99518992092659,
        "Satellite Name": "Constellation 1 194",
        "Satellite Number": 194,
        "Semi-Major Axis(m)": 7083131.272910544,
        "Time(s)": 85
    },
    {
        "Altitude(m)": 714935.8014543003,
        "Argument of Periapsis(deg)": 0.005155528537104883,
        "Eccentricity": 0.0,
        "Inclination(deg)": 45.0,
        "Latitude(deg)": -38.036709536527255,
        "Longitude(deg)": -111.42204504193228,
        "Mean Anomaly(deg)": 299.7657980614913,
        "RAAN(deg)": 39.995133331761025,
        "Satellite Name": "Constellation 1 194",
        "Satellite Number": 194,
        "Semi-Major Axis(m)": 7083131.272910544,
        "Time(s)": 86
    },
    {
        "Altitude(m)": 714924.6691824456,
        "Argument of Periapsis(deg)": 0.0052154765433502885,
        "Eccentricity": 0.0,
        "Inclination(deg)": 45.0,
        "Latitude(deg)": -38.00970847388479,
        "Longitude(deg)": -111.35743115048395,
        "Mean Anomaly(deg)": 299.8264992017413,
        "RAAN(deg)": 39.99507674259545,
        "Satellite Name": "Constellation 1 194",
        "Satellite Number": 194,
        "Semi-Major Axis(m)": 7083131.272910544,
        "Time(s)": 87
    },
    {
        "Altitude(m)": 714913.5213280375,
        "Argument of Periapsis(deg)": 0.005275424549595694,
        "Eccentricity": 0.0,
        "Inclination(deg)": 45.0,
        "Latitude(deg)": -37.982667124905845,
        "Longitude(deg)": -111.29286754681176,
        "Mean Anomaly(deg)": 299.88720034199116,
        "RAAN(deg)": 39.995020153429884,
        "Satellite Name": "Constellation 1 194",
        "Satellite Number": 194,
        "Semi-Major Axis(m)": 7083131.272910544,
        "Time(s)": 88
    },
    {
        "Altitude(m)": 714902.3579314831,
        "Argument of Periapsis(deg)": 0.0053353725558411,
        "Eccentricity": 0.0,
        "Inclination(deg)": 45.0,
        "Latitude(deg)": -37.955585557112485,
        "Longitude(deg)": -111.2283543878339,
        "Mean Anomaly(deg)": 299.94790148224104,
        "RAAN(deg)": 39.99496356426431,
        "Satellite Name": "Constellation 1 194",
        "Satellite Number": 194,
        "Semi-Major Axis(m)": 7083131.272910544,
        "Time(s)": 89
    },
    {
        "Altitude(m)": 714891.1790332546,
        "Argument of Periapsis(deg)": 0.005395320562086505,
        "Eccentricity": 0.0,
        "Inclination(deg)": 45.0,
        "Latitude(deg)": -37.928463837993704,
        "Longitude(deg)": -111.16389132583926,
        "Mean Anomaly(deg)": 300.0086026224909,
        "RAAN(deg)": 39.99490697509874,
        "Satellite Name": "Constellation 1 194",
        "Satellite Number": 194,
        "Semi-Major Axis(m)": 7083131.272910544,
        "Time(s)": 90
    },
    {
        "Altitude(m)": 714879.984673869,
        "Argument of Periapsis(deg)": 0.00545526856833191,
        "Eccentricity": 0.0,
        "Inclination(deg)": 45.0,
        "Latitude(deg)": -37.90130203500425,
        "Longitude(deg)": -111.09947851707241,
        "Mean Anomaly(deg)": 300.06930376274084,
        "RAAN(deg)": 39.99485038593318,
        "Satellite Name": "Constellation 1 194",
        "Satellite Number": 194,
        "Semi-Major Axis(m)": 7083131.272910544,
        "Time(s)": 91
    },
    {
        "Altitude(m)": 714868.774893899,
        "Argument of Periapsis(deg)": 0.005515216574577317,
        "Eccentricity": 0.0,
        "Inclination(deg)": 45.0,
        "Latitude(deg)": -37.87410021556487,
        "Longitude(deg)": -111.03511594934663,
        "Mean Anomaly(deg)": 300.1300049029908,
        "RAAN(deg)": 39.9947937967676,
        "Satellite Name": "Constellation 1 194",
        "Satellite Number": 194,
        "Semi-Major Axis(m)": 7083131.272910544,
        "Time(s)": 92
    },
    {
        "Altitude(m)": 714857.5497339718,
        "Argument of Periapsis(deg)": 0.005575164580822722,
        "Eccentricity": 0.0,
        "Inclination(deg)": 45.0,
        "Latitude(deg)": -37.84685844706162,
        "Longitude(deg)": -110.9708036101419,
        "Mean Anomaly(deg)": 300.1907060432406,
        "RAAN(deg)": 39.994737207602036,
        "Satellite Name": "Constellation 1 194",
        "Satellite Number": 194,
        "Semi-Major Axis(m)": 7083131.272910544,
        "Time(s)": 93
    },
    {
        "Altitude(m)": 714846.3092347626,
        "Argument of Periapsis(deg)": 0.005635112587068129,
        "Eccentricity": 0.0,
        "Inclination(deg)": 45.0,
        "Latitude(deg)": -37.81957679684548,
        "Longitude(deg)": -110.90654148660639,
        "Mean Anomaly(deg)": 300.2514071834905,
        "RAAN(deg)": 39.99468061843647,
        "Satellite Name": "Constellation 1 194",
        "Satellite Number": 194,
        "Semi-Major Axis(m)": 7083131.272910544,
        "Time(s)": 94
    }
]